OBJECT_NAME,OBJECT_ID,EPOCH,MEAN_MOTION,ECCENTRICITY,INCLINATION,RA_OF_ASC_NODE,ARG_OF_PERICENTER,MEAN_ANOMALY,EPHEMERIS_TYPE,CLASSIFICATION_TYPE,NORAD_CAT_ID,ELEMENT_SET_NO,REV_AT_EPOCH,BSTAR,MEAN_MOTION_DOT,MEAN_MOTION_DDOT
M2 PATHFINDER,2020-037E,2026-07-22T11:45:51.355008,15.04811892,.00122506,97.8143,35.1217,39.2176,320.9935,0,U,45727,999,33080,.15600842E-3,.2141E-4,0
NETSAT-4,2020-068U,2026-07-22T12:00:39.412224,15.44937463,.00056313,97.8612,214.6093,168.7505,191.3869,0,U,46504,999,32122,.40797925E-3,.19129E-3,0
NETSAT-3,2020-068V,2026-07-22T00:21:11.961792,15.43774416,.00046608,97.8664,212.2581,184.8573,175.2630,0,U,46505,999,32105,.43820067E-3,.19756E-3,0
NETSAT-1,2020-068W,2026-07-22T11:12:15.098688,15.35366097,.00030173,97.8765,206.6517,222.2232,137.8779,0,U,46506,999,32071,.37417845E-3,.12773E-3,0
NETSAT-2,2020-068X,2026-07-21T21:44:26.420640,15.47372394,.00031492,97.8624,213.9959,182.0467,178.0769,0,U,46507,999,32110,.4772301E-3,.2435E-3,0
GREENCUBE (IO-117),2022-080E,2026-07-22T16:03:56.210112,6.42583354,.00093274,70.1381,285.9076,282.2706,77.6909,0,U,53109,999,9434,0,-.3E-7,0
SITRO-AIS 5 (KATYS),2023-091L,2026-07-22T21:55:31.658304,15.30190314,.00098644,97.5041,268.1676,344.0563,16.0365,0,U,57176,999,16980,.47435381E-3,.13808E-3,0
SITRO-AIS 6 (CHIRKIN),2023-091AC,2026-07-22T21:51:41.767776,15.26540596,.00103715,97.5049,267.0910,348.8819,11.2188,0,U,57192,999,16973,.43336099E-3,.11274E-3,0
SITRO-AIS 8 (ANOKHIN),2023-091AD,2026-07-22T20:47:44.301408,15.33005548,.00087698,97.5036,269.8579,338.7560,21.3317,0,U,57193,999,16991,.50272157E-3,.15981E-3,0
SITRO-AIS 7 (FARTUSHNIY),2023-091AE,2026-07-22T22:07:01.641792,15.26211900,.00103321,97.5045,266.9076,350.0909,10.0124,0,U,57194,999,16972,.44876786E-3,.11562E-3,0
SITRO-AIS 10 (BURDAEV),2023-091AK,2026-07-22T20:58:09.808896,15.39845982,.00044088,97.5061,275.2984,305.7697,54.3138,0,U,57199,999,17025,.61318401E-3,.24309E-3,0
SITRO-AIS 9 (SHCHUKIN),2023-091AM,2026-07-22T21:53:02.586336,15.39325903,.00046522,97.5060,275.0386,306.2268,53.8547,0,U,57201,999,17024,.59816459E-3,.23309E-3,0
SITRO-AIS 12 (SMIRENNIY),2023-091AQ,2026-07-22T21:29:43.271808,15.39622828,.00043334,97.5072,275.5118,297.8122,62.2684,0,U,57204,999,17026,.60425167E-3,.23777E-3,0
SITRO-AIS 11 (SHEFFER),2023-091AU,2026-07-22T21:34:27.256512,15.40073883,.00042748,97.5071,275.7848,297.0570,63.0239,0,U,57208,999,17028,.61325661E-3,.24495E-3,0
SITRO-AIS 25,2024-039R,2026-07-22T22:49:37.351200,14.93675372,.01435877,95.3885,259.6679,202.1538,157.3444,0,U,59066,999,13006,.28717742E-3,.3686E-4,0
SITRO-AIS 26,2024-039S,2026-07-22T22:58:43.259232,14.93465818,.01438991,95.3886,259.5623,202.7360,156.7452,0,U,59067,999,13005,.31418555E-3,.4017E-4,0
SITRO-AIS 27,2024-039T,2026-07-22T22:01:19.940160,14.93896893,.01428957,95.3895,259.8234,201.3444,158.1786,0,U,59068,999,13007,.34103686E-3,.4403E-4,0
SITRO-AIS 28,2024-039U,2026-07-22T23:04:09.145344,14.93926301,.01428976,95.3889,259.9026,201.0585,158.4721,0,U,59071,999,13008,.34369422E-3,.4441E-4,0
GRBBETA,2024-128C,2026-07-22T04:38:52.502208,15.06841666,.00361222,61.9898,93.4263,142.1636,218.2007,0,U,60237,999,11154,.21944702E-3,.3116E-4,0
OOV-CUBE (TUBSAT-30),2024-128F,2026-07-22T06:04:30.835488,15.02894414,.0040191,61.9942,103.2884,141.6330,218.7632,0,U,60240,999,11138,.12811368E-3,.1541E-4,0
ROBUSTA-3A (MEDITERRANEE),2024-128J,2026-07-22T15:38:00.799296,15.12061293,.00370177,61.9863,82.7927,135.4589,224.9492,0,U,60243,999,11178,.44265969E-3,.7559E-4,0
LASARSAT,2024-247Q,2026-07-22T16:11:55.194432,15.48423365,.00086031,44.9745,62.4735,212.5816,147.4545,0,U,62391,999,8881,.69745167E-3,.37711E-3,0
CROCUBE,2024-247T,2026-07-22T21:12:10.560384,15.50662269,.00087278,44.9713,57.9990,220.4300,139.5943,0,U,62394,999,8888,.8189054E-3,.48082E-3,0
FORESAIL-1 PRIME,2025-276DS,2026-07-22T21:38:35.012832,15.18984233,.00022553,97.4184,276.5226,26.2384,333.8965,0,U,66778,999,3582,.19967838E-3,.4109E-4,0
KNACKSAT-2,1998-067XZ,2026-07-22T11:38:31.436448,15.62993156,.00075868,51.6274,116.5146,352.0545,8.0328,0,U,67683,999,2579,.62866951E-3,.58135E-3,0
